STARLINK-31374          
1 59404U 24064G   26068.19865622 -.00002902  00000+0 -96014-4 0  9997
2 59404  43.0059   7.8835 0000841 294.8221  65.2543 15.27567910109487
FLOCK 4G-25             
1 62646U 25009AP  26068.74572546  .00010373  00000+0  38902-3 0  9990
2 62646  97.4049 151.4141 0000828 316.3151  43.8023 15.27424196 63734
